[{"CCSDS_OMM_VERS":"2.0","COMMENT":"GENERATED VIA SPACE-TRACK.ORG API","CREATION_DATE":"2020-12-02T19:24:44","ORIGINATOR":"18 SPCS","OBJECT_NAME":"GLOBAL-7","OBJECT_ID":"2020-055BP","CENTER_NAME":"EARTH","REF_FRAME":"TEME","TIME_SYSTEM":"UTC","MEAN_ELEMENT_THEORY":"SGP4","EPOCH":"2020-12-02T04:03:37.921824","MEAN_MOTION":"15.54623581","ECCENTRICITY":"0.00049180","INCLINATION":"53.0072","RA_OF_ASC_NODE":"85.1016","ARG_OF_PERICENTER":"71.2423","MEAN_ANOMALY":"288.9119","EPHEMERIS_TYPE":"0","CLASSIFICATION_TYPE":"U","NORAD_CAT_ID":"46088","ELEMENT_SET_NO":"999","REV_AT_EPOCH":"2279","BSTAR":"0.00020314000000","MEAN_MOTION_DOT":"0.00013221","MEAN_MOTION_DDOT":"0.0000000000000","SEMIMAJOR_AXIS":"6781.384","PERIOD":"92.626","APOAPSIS":"406.584","PERIAPSIS":"399.913","OBJECT_TYPE":"PAYLOAD","RCS_SIZE":"MEDIUM","COUNTRY_CODE":"US","LAUNCH_DATE":"2020-08-07","SITE":"AFETR","DECAY_DATE":null,"FILE":"2896233","GP_ID":"166760634","TLE_LINE0":"0 GLOBAL-7","TLE_LINE1":"1 46088U 20055BP  20337.16918891  .00013221  00000-0  20314-3 0  9998","TLE_LINE2":"2 46088  53.0072  85.1016 0004918  71.2423 288.9119 15.54623581 22795"},{"CCSDS_OMM_VERS":"2.0","COMMENT":"GENERATED VIA SPACE-TRACK.ORG API","CREATION_DATE":"2020-12-02T18:56:12","ORIGINATOR":"18 SPCS","OBJECT_NAME":"STARLINK-1572","OBJECT_ID":"2020-055AK","CENTER_NAME":"EARTH","REF_FRAME":"TEME","TIME_SYSTEM":"UTC","MEAN_ELEMENT_THEORY":"SGP4","EPOCH":"2020-12-02T04:32:29.522976","MEAN_MOTION":"15.06435496","ECCENTRICITY":"0.00018960","INCLINATION":"53.0217","RA_OF_ASC_NODE":"111.5225","ARG_OF_PERICENTER":"93.8505","MEAN_ANOMALY":"266.2701","EPHEMERIS_TYPE":"0","CLASSIFICATION_TYPE":"U","NORAD_CAT_ID":"46060","ELEMENT_SET_NO":"999","REV_AT_EPOCH":"1857","BSTAR":"0.00082823000000","MEAN_MOTION_DOT":"0.00012088","MEAN_MOTION_DDOT":"0.0000000000000","SEMIMAJOR_AXIS":"6925.239","PERIOD":"95.589","APOAPSIS":"548.417","PERIAPSIS":"545.791","OBJECT_TYPE":"PAYLOAD","RCS_SIZE":"LARGE","COUNTRY_CODE":"US","LAUNCH_DATE":"2020-08-07","SITE":"AFETR","DECAY_DATE":null,"FILE":"2895939","GP_ID":"166734941","TLE_LINE0":"0 STARLINK-1572","TLE_LINE1":"1 46060U 20055AK  20337.18923059  .00012088  00000-0  82823-3 0  9995","TLE_LINE2":"2 46060  53.0217 111.5225 0001896  93.8505 266.2701 15.06435496 18575"},{"CCSDS_OMM_VERS":"2.0","COMMENT":"GENERATED VIA SPACE-TRACK.ORG API","CREATION_DATE":"2020-12-02T19:24:44","ORIGINATOR":"18 SPCS","OBJECT_NAME":"STARLINK-1572","OBJECT_ID":"2020-055AK","CENTER_NAME":"EARTH","REF_FRAME":"TEME","TIME_SYSTEM":"UTC","MEAN_ELEMENT_THEORY":"SGP4","EPOCH":"2020-12-02T04:32:29.522976","MEAN_MOTION":"15.06435496","ECCENTRICITY":"0.00018960","INCLINATION":"53.0217","RA_OF_ASC_NODE":"111.5225","ARG_OF_PERICENTER":"93.8505","MEAN_ANOMALY":"266.2701","EPHEMERIS_TYPE":"0","CLASSIFICATION_TYPE":"U","NORAD_CAT_ID":"46060","ELEMENT_SET_NO":"999","REV_AT_EPOCH":"1908","BSTAR":"0.00082823000000","MEAN_MOTION_DOT":"0.00012088","MEAN_MOTION_DDOT":"0.0000000000000","SEMIMAJOR_AXIS":"6925.239","PERIOD":"95.589","APOAPSIS":"548.417","PERIAPSIS":"545.791","OBJECT_TYPE":"PAYLOAD","RCS_SIZE":"LARGE","COUNTRY_CODE":"US","LAUNCH_DATE":"2020-08-07","SITE":"AFETR","DECAY_DATE":null,"FILE":"2896233","GP_ID":"166761131","TLE_LINE0":"0 STARLINK-1572","TLE_LINE1":"1 46060U 20055AK  20337.18923059  .00012088  00000-0  82823-3 0  9995","TLE_LINE2":"2 46060  53.0217 111.5225 0001896  93.8505 266.2701 15.06435496 19082"},{"CCSDS_OMM_VERS":"2.0","COMMENT":"GENERATED VIA SPACE-TRACK.ORG API","CREATION_DATE":"2020-12-02T18:56:12","ORIGINATOR":"18 SPCS","OBJECT_NAME":"STARLINK-1570","OBJECT_ID":"2020-055AJ","CENTER_NAME":"EARTH","REF_FRAME":"TEME","TIME_SYSTEM":"UTC","MEAN_ELEMENT_THEORY":"SGP4","EPOCH":"2020-12-02T04:37:51.451104","MEAN_MOTION":"15.06357148","ECCENTRICITY":"0.00029100","INCLINATION":"53.0092","RA_OF_ASC_NODE":"111.5096","ARG_OF_PERICENTER":"88.6123","MEAN_ANOMALY":"271.5199","EPHEMERIS_TYPE":"0","CLASSIFICATION_TYPE":"U","NORAD_CAT_ID":"46059","ELEMENT_SET_NO":"999","REV_AT_EPOCH":"1858","BSTAR":"0.00047894000000","MEAN_MOTION_DOT":"0.00006851","MEAN_MOTION_DDOT":"0.0000000000000","SEMIMAJOR_AXIS":"6925.479","PERIOD":"95.594","APOAPSIS":"549.360","PERIAPSIS":"545.329","OBJECT_TYPE":"PAYLOAD","RCS_SIZE":"LARGE","COUNTRY_CODE":"US","LAUNCH_DATE":"2020-08-07","SITE":"AFETR","DECAY_DATE":null,"FILE":"2896120","GP_ID":"166738909","TLE_LINE0":"0 STARLINK-1570","TLE_LINE1":"1 46059U 20055AJ  20337.19295661  .00006851  00000-0  47894-3 0  9995","TLE_LINE2":"2 46059  53.0092 111.5096 0002910  88.6123 271.5199 15.06357148 18584"},{"CCSDS_OMM_VERS":"2.0","COMMENT":"GENERATED VIA SPACE-TRACK.ORG API","CREATION_DATE":"2020-12-02T19:24:44","ORIGINATOR":"18 SPCS","OBJECT_NAME":"STARLINK-1570","OBJECT_ID":"2020-055AJ","CENTER_NAME":"EARTH","REF_FRAME":"TEME","TIME_SYSTEM":"UTC","MEAN_ELEMENT_THEORY":"SGP4","EPOCH":"2020-12-02T04:37:51.451104","MEAN_MOTION":"15.06357148","ECCENTRICITY":"0.00029100","INCLINATION":"53.0092","RA_OF_ASC_NODE":"111.5096","ARG_OF_PERICENTER":"88.6123","MEAN_ANOMALY":"271.5199","EPHEMERIS_TYPE":"0","CLASSIFICATION_TYPE":"U","NORAD_CAT_ID":"46059","ELEMENT_SET_NO":"999","REV_AT_EPOCH":"1907","BSTAR":"0.00047894000000","MEAN_MOTION_DOT":"0.00006851","MEAN_MOTION_DDOT":"0.0000000000000","SEMIMAJOR_AXIS":"6925.479","PERIOD":"95.594","APOAPSIS":"549.360","PERIAPSIS":"545.329","OBJECT_TYPE":"PAYLOAD","RCS_SIZE":"LARGE","COUNTRY_CODE":"US","LAUNCH_DATE":"2020-08-07","SITE":"AFETR","DECAY_DATE":null,"FILE":"2896233","GP_ID":"166760390","TLE_LINE0":"0 STARLINK-1570","TLE_LINE1":"1 46059U 20055AJ  20337.19295661  .00006851  00000-0  47894-3 0  9995","TLE_LINE2":"2 46059  53.0092 111.5096 0002910  88.6123 271.5199 15.06357148 19079"},{"CCSDS_OMM_VERS":"2.0","COMMENT":"GENERATED VIA SPACE-TRACK.ORG API","CREATION_DATE":"2020-12-02T19:24:44","ORIGINATOR":"18 SPCS","OBJECT_NAME":"STARLINK-1514","OBJECT_ID":"2020-055V","CENTER_NAME":"EARTH","REF_FRAME":"TEME","TIME_SYSTEM":"UTC","MEAN_ELEMENT_THEORY":"SGP4","EPOCH":"2020-12-02T04:42:56.961504","MEAN_MOTION":"15.06454611","ECCENTRICITY":"0.00026540","INCLINATION":"53.0064","RA_OF_ASC_NODE":"111.4960","ARG_OF_PERICENTER":"77.0935","MEAN_ANOMALY":"283.0350","EPHEMERIS_TYPE":"0","CLASSIFICATION_TYPE":"U","NORAD_CAT_ID":"46046","ELEMENT_SET_NO":"999","REV_AT_EPOCH":"1908","BSTAR":"0.00206660000000","MEAN_MOTION_DOT":"0.00030682","MEAN_MOTION_DDOT":"0.0000000000000","SEMIMAJOR_AXIS":"6925.181","PERIOD":"95.588","APOAPSIS":"548.884","PERIAPSIS":"545.208","OBJECT_TYPE":"PAYLOAD","RCS_SIZE":"LARGE","COUNTRY_CODE":"US","LAUNCH_DATE":"2020-08-07","SITE":"AFETR","DECAY_DATE":null,"FILE":"2896233","GP_ID":"166760152","TLE_LINE0":"0 STARLINK-1514","TLE_LINE1":"1 46046U 20055V   20337.19649261  .00030682  00000-0  20666-2 0  9996","TLE_LINE2":"2 46046  53.0064 111.4960 0002654  77.0935 283.0350 15.06454611 19082"},{"CCSDS_OMM_VERS":"2.0","COMMENT":"GENERATED VIA SPACE-TRACK.ORG API","CREATION_DATE":"2020-12-03T03:02:41","ORIGINATOR":"18 SPCS","OBJECT_NAME":"STARLINK-1541","OBJECT_ID":"2020-055AB","CENTER_NAME":"EARTH","REF_FRAME":"TEME","TIME_SYSTEM":"UTC","MEAN_ELEMENT_THEORY":"SGP4","EPOCH":"2020-12-02T05:20:20.220864","MEAN_MOTION":"15.06373647","ECCENTRICITY":"0.00010330","INCLINATION":"53.0193","RA_OF_ASC_NODE":"111.3776","ARG_OF_PERICENTER":"52.7569","MEAN_ANOMALY":"307.3514","EPHEMERIS_TYPE":"0","CLASSIFICATION_TYPE":"U","NORAD_CAT_ID":"46052","ELEMENT_SET_NO":"999","REV_AT_EPOCH":"1909","BSTAR":"0.00011118000000","MEAN_MOTION_DOT":"0.00001374","MEAN_MOTION_DDOT":"0.0000000000000","SEMIMAJOR_AXIS":"6925.429","PERIOD":"95.593","APOAPSIS":"548.009","PERIAPSIS":"546.578","OBJECT_TYPE":"PAYLOAD","RCS_SIZE":"LARGE","COUNTRY_CODE":"US","LAUNCH_DATE":"2020-08-07","SITE":"AFETR","DECAY_DATE":null,"FILE":"2896409","GP_ID":"166786738","TLE_LINE0":"0 STARLINK-1541","TLE_LINE1":"1 46052U 20055AB  20337.22245626  .00001374  00000-0  11118-3 0  9993","TLE_LINE2":"2 46052  53.0193 111.3776 0001033  52.7569 307.3514 15.06373647 19091"},{"CCSDS_OMM_VERS":"2.0","COMMENT":"GENERATED VIA SPACE-TRACK.ORG API","CREATION_DATE":"2020-12-03T03:02:41","ORIGINATOR":"18 SPCS","OBJECT_NAME":"FALCON 9 DEB","OBJECT_ID":"2020-055BK","CENTER_NAME":"EARTH","REF_FRAME":"TEME","TIME_SYSTEM":"UTC","MEAN_ELEMENT_THEORY":"SGP4","EPOCH":"2020-12-02T06:52:37.058592","MEAN_MOTION":"15.59160721","ECCENTRICITY":"0.00131030","INCLINATION":"53.0153","RA_OF_ASC_NODE":"82.3401","ARG_OF_PERICENTER":"324.1538","MEAN_ANOMALY":"35.8593","EPHEMERIS_TYPE":"0","CLASSIFICATION_TYPE":"U","NORAD_CAT_ID":"46084","ELEMENT_SET_NO":"999","REV_AT_EPOCH":"2285","BSTAR":"0.00020359000000","MEAN_MOTION_DOT":"0.00015807","MEAN_MOTION_DDOT":"0.0000000000000","SEMIMAJOR_AXIS":"6768.221","PERIOD":"92.357","APOAPSIS":"398.955","PERIAPSIS":"381.218","OBJECT_TYPE":"DEBRIS","RCS_SIZE":"MEDIUM","COUNTRY_CODE":"US","LAUNCH_DATE":"2020-08-07","SITE":"AFETR","DECAY_DATE":null,"FILE":"2896409","GP_ID":"166786742","TLE_LINE0":"0 FALCON 9 DEB","TLE_LINE1":"1 46084U 20055BK  20337.28654003  .00015807  00000-0  20359-3 0  9990","TLE_LINE2":"2 46084  53.0153  82.3401 0013103 324.1538  35.8593 15.59160721 22850"}]